*******************************************************************************
 Revised: September 28, 2017           Jupiter                              599
 
 PHYSICAL DATA (updated 2018-Aug-15):
  Mass x10^24 (kg)      = 1898.13+-.19    Density (g/cm^3)       =   1.326
  Equat. radius (1 bar) = 71492+-4 km     Polar radius (km)      =  66854+-10
  Vol. Mean Radius (km) = 69911+-6        Flattening             =   0.06487
  Geometric Albedo      = 0.52            Rocky core mass (Mc/M) =  0.0261
  Sid. rot. period (III)= 9h 55m 29.71 s  Sid. rot. rate (rad/s) =  0.00017585 
  Mean solar day, hrs   = ~9.9259         
  GM (km^3/s^2)         = 126686534.911   GM 1-sigma (km^3/s^2)  =  +-1.5
  Equ. grav, ge (m/s^2) = 24.79           Pol. grav, gp (m/s^2)  =  28.34
  Vis. magnitude V(1,0) = -9.40
  Vis. mag. (opposition)= -2.70           Obliquity to orbit     =  3.13 deg
  Sidereal orbit period = 11.861982204 y  Sidereal orbit period  = 4332.589 d
  Mean daily motion     = 0.0831294 deg/d Mean orbit speed, km/s = 13.0697
  Atmos. temp. (1 bar)  = 165+-5 K        Escape speed, km/s    =  59.5           
  A_roche(ice)/Rp       =  2.76           Hill's sphere rad. Rp  = 740
                                 Perihelion   Aphelion     Mean
  Solar Constant (W/m^2)         56           46           51
  Maximum Planetary IR (W/m^2)   13.7         13.4         13.6
  Minimum Planetary IR (W/m^2)   13.7         13.4         13.6
*******************************************************************************
 
 
*******************************************************************************
Ephemeris / WWW_USER Fri Jun 19 18:05:45 2020 Pasadena, USA      / Horizons
*******************************************************************************
Target body name: Jupiter (599)                   {source: jup310}
Center body name: Solar System Barycenter (0)     {source: DE431mx}
Center-site name: BODY CENTER
*******************************************************************************
Start time      : A.D. 1969-Jun-28 00:00:00.0000 TDB
Stop  time      : A.D. 2071-May-04 00:00:00.0000 TDB
Step-size       : 7200 minutes
*******************************************************************************
Center geodetic : 0.00000000,0.00000000,0.0000000 {E-lon(deg),Lat(deg),Alt(km)}
Center cylindric: 0.00000000,0.00000000,0.0000000 {E-lon(deg),Dxy(km),Dz(km)}
Center radii    : (undefined)                                                  
Output units    : AU-D
Output type     : GEOMETRIC cartesian states
Output format   : 2 (position and velocity)
Reference frame : Ecliptic of J2000.0
*******************************************************************************
            JDTDB,            Calendar Date (TDB),        delta-T,                      X,                      Y,                      Z,                     VX,                     VY,                     VZ,
******************************************************************************************************************************************************************************************************************
$$SOE
2477200.500000000, A.D. 2070-Mar-30 00:00:00.0000,      69.185647,  4.929087079430067E+00,  4.378985870011340E-01, -1.119983113735451E-01, -7.624899470738805E-04,  7.876825548941081E-03, -1.600684514318928E-05,
2477205.500000000, A.D. 2070-Apr-04 00:00:00.0000,      69.185656,  4.925125033691687E+00,  4.772661596313905E-01, -1.120750058601727E-01, -8.221896883909584E-04,  7.871082732089377E-03, -1.463391922020555E-05,
2477210.500000000, A.D. 2070-Apr-09 00:00:00.0000,      69.185654,  4.920862953332875E+00,  5.166041699589906E-01, -1.121448706847562E-01, -8.822024566705169E-04,  7.864164836841334E-03, -1.329803559598371E-05,
2477215.500000000, A.D. 2070-Apr-14 00:00:00.0000,      69.185640,  4.916303825003827E+00,  5.559106735207987E-01, -1.122078575892462E-01, -9.417139955184222E-04,  7.858637156305814E-03, -1.189323645822821E-05,
2477220.500000000, A.D. 2070-Apr-19 00:00:00.0000,      69.185614,  4.911442118837517E+00,  5.951840712369200E-01, -1.122640143996692E-01, -1.002012977400227E-03,  7.850880725670903E-03, -1.054898160803970E-05,
2477225.500000000, A.D. 2070-Apr-24 00:00:00.0000,      69.185574,  4.906279634617085E+00,  6.344204506181913E-01, -1.123133613291861E-01, -1.062270511658298E-03,  7.842274941818415E-03, -9.223371472619781E-06,
2477230.500000000, A.D. 2070-Apr-29 00:00:00.0000,      69.185522,  4.900821527791379E+00,  6.736181697886223E-01, -1.123557992771652E-01, -1.122622023642639E-03,  7.836054445543578E-03, -7.800062582722370E-06,
2477235.500000000, A.D. 2070-May-04 00:00:00.0000,      69.185460,  4.895063064614097E+00,  7.127749448108264E-01, -1.123913985208120E-01, -1.181715613452330E-03,  7.827959940024356E-03, -6.406238451544317E-06,
2477240.500000000, A.D. 2070-May-09 00:00:00.0000,      69.185389,  4.889003324009316E+00,  7.518879259830921E-01, -1.124201878760855E-01, -1.240777776094847E-03,  7.817932473287428E-03, -5.059402405270242E-06,
2477245.500000000, A.D. 2070-May-14 00:00:00.0000,      69.185309,  4.882647422315402E+00,  7.909550615154778E-01, -1.124420732497280E-01, -1.301050372647549E-03,  7.808233301001621E-03, -3.707844654065952E-06,
2477250.500000000, A.D. 2070-May-19 00:00:00.0000,      69.185218,  4.875994741717703E+00,  8.299739240558095E-01, -1.124570829095226E-01, -1.360402509120745E-03,  7.798982180737204E-03, -2.314185865192621E-06,
2477255.500000000, A.D. 2070-May-24 00:00:00.0000,      69.185117,  4.869041416054822E+00,  8.689426529408050E-01, -1.124652542456666E-01, -1.420421209276251E-03,  7.788134893140254E-03, -9.570807083164998E-07,
2477260.500000000, A.D. 2070-May-29 00:00:00.0000,      69.185008,  4.861791386781536E+00,  9.078575588374138E-01, -1.124665701014580E-01, -1.480128055270763E-03,  7.776982053130353E-03,  3.988869804344597E-07,
2477265.500000000, A.D. 2070-Jun-03 00:00:00.0000,      69.184892,  4.854247622984948E+00,  9.467168817734757E-01, -1.124609834198875E-01, -1.538813520819455E-03,  7.767459675152393E-03,  1.840895010368759E-06,
2477270.500000000, A.D. 2070-Jun-08 00:00:00.0000,      69.184772,  4.846404367762179E+00,  9.855190511795398E-01, -1.124485532189396E-01, -1.597640506231955E-03,  7.754791432998259E-03,  3.194162386354834E-06,
2477275.500000000, A.D. 2070-Jun-13 00:00:00.0000,      69.184647,  4.838264064043443E+00,  1.024260468141860E+00, -1.124292894769667E-01, -1.656754881824448E-03,  7.741035908714362E-03,  4.515063047630445E-06,
2477280.500000000, A.D. 2070-Jun-18 00:00:00.0000,      69.184516,  4.829831805265839E+00,  1.062939526021249E+00, -1.124030981008208E-01, -1.716726739786945E-03,  7.729313332761955E-03,  5.909056072088790E-06,
2477285.500000000, A.D. 2070-Jun-23 00:00:00.0000,      69.184380,  4.821103485159014E+00,  1.101553785420628E+00, -1.123700589795408E-01, -1.775485766263994E-03,  7.716449744138426E-03,  7.295988715641339E-06,
2477290.500000000, A.D. 2070-Jun-28 00:00:00.0000,      69.184241,  4.812078410247778E+00,  1.140100684062952E+00, -1.123301943716108E-01, -1.834247740201223E-03,  7.702374774537613E-03,  8.661784872392218E-06,
2477295.500000000, A.D. 2070-Jul-03 00:00:00.0000,      69.184101,  4.802761551032463E+00,  1.178577491242435E+00, -1.122834448455182E-01, -1.893057344437000E-03,  7.688404060411233E-03,  1.003601329787544E-05,
2477300.500000000, A.D. 2070-Jul-08 00:00:00.0000,      69.183962,  4.793152557997630E+00,  1.216982243874110E+00, -1.122298295325298E-01, -1.950686019159710E-03,  7.674473685001830E-03,  1.144165685627534E-05,
2477305.500000000, A.D. 2070-Jul-13 00:00:00.0000,      69.183824,  4.783247475275924E+00,  1.255313527349975E+00, -1.121693780908028E-01, -2.009623822942931E-03,  7.658032056731070E-03,  1.276629935802495E-05,
2477310.500000000, A.D. 2070-Jul-18 00:00:00.0000,      69.183686,  4.773051038711537E+00,  1.293567358758619E+00, -1.121020839125896E-01, -2.068621259662272E-03,  7.641768138964731E-03,  1.409913619859227E-05,
2477315.500000000, A.D. 2070-Jul-23 00:00:00.0000,      69.183548,  4.762566313434335E+00,  1.331742157099876E+00, -1.120278993379004E-01, -2.127026425347910E-03,  7.627742142848244E-03,  1.553452282428848E-05,
2477320.500000000, A.D. 2070-Jul-28 00:00:00.0000,      69.183414,  4.751787658516125E+00,  1.369836046087220E+00, -1.119469040785366E-01, -2.184759526662336E-03,  7.610899774959900E-03,  1.689962829816829E-05,
2477325.500000000, A.D. 2070-Aug-02 00:00:00.0000,      69.183285,  4.740717856154584E+00,  1.407845648525540E+00, -1.118591046884646E-01, -2.242258903933318E-03,  7.593125712193224E-03,  1.824536489134225E-05,
2477330.500000000, A.D. 2070-Aug-07 00:00:00.0000,      69.183163,  4.729361607846242E+00,  1.445769270097328E+00, -1.117644225641586E-01, -2.300358835498892E-03,  7.576273659166128E-03,  1.962494727824447E-05,
2477335.500000000, A.D. 2070-Aug-12 00:00:00.0000,      69.183047,  4.717715442964568E+00,  1.483604812569132E+00, -1.116629300234148E-01, -2.357657762411681E-03,  7.558098614779035E-03,  2.098310644321715E-05,
2477340.500000000, A.D. 2070-Aug-17 00:00:00.0000,      69.182936,  4.705778934704315E+00,  1.521350155532339E+00, -1.115546364249587E-01, -2.415994764098103E-03,  7.538979039875817E-03,  2.231480488823789E-05,
2477345.500000000, A.D. 2070-Aug-22 00:00:00.0000,      69.182831,  4.693557386705820E+00,  1.559001801528906E+00, -1.114395156320204E-01, -2.473885931825866E-03,  7.520677859352838E-03,  2.368313368549855E-05,
2477350.500000000, A.D. 2070-Aug-27 00:00:00.0000,      69.182735,  4.681050639354464E+00,  1.596558101380101E+00, -1.113175833362974E-01, -2.530151201414482E-03,  7.502952584200322E-03,  2.510920004009767E-05,
2477355.500000000, A.D. 2070-Sep-01 00:00:00.0000,      69.182650,  4.668254460406278E+00,  1.634017704183678E+00, -1.111888794758873E-01, -2.587089458091840E-03,  7.481971526676752E-03,  2.643225746782611E-05,
